*******************************************************************************
Ephemeris / WWW_USER Thu May 23 17:15:39 2024 Pasadena, USA      / Horizons    
*******************************************************************************
Target body name: (2018 RP1)                      {source: JPL#4}
Center body name: Earth (399)                     {source: DE441}
Center-site name: Gemini South Obs., Cerro Pachon
*******************************************************************************
Start time      : A.D. 2018-Sep-09 22:40:00.0000 UT      
Stop  time      : A.D. 2018-Sep-10 10:39:00.0000 UT      
Step-size       : 1 minutes
*******************************************************************************
Target pole/equ : undefined
Target radii    : undefined                                                    
Center geodetic : 289.2634, -30.2406227, 2.71233  {E-lon(deg),Lat(deg),Alt(km)}
Center cylindric: 289.2634,5517.21435,-3194.81213 {E-lon(deg),Dxy(km),Dz(km)}
Center pole/equ : ITRF93                          {East-longitude positive}
Center radii    : 6378.137, 6378.137, 6356.752 km {Equator_a, b, pole_c}       
Target primary  : Sun
Vis. interferer : MOON (R_eq= 1737.400) km        {source: DE441}
Rel. light bend : Sun                             {source: DE441}
Rel. lght bnd GM: 1.3271E+11 km^3/s^2                                          
Small-body perts: Yes                             {source: SB441-N16}
Atmos refraction: NO (AIRLESS)
RA format       : HMS
Time format     : CAL 
Calendar mode   : Mixed Julian/Gregorian
RTS-only print  : NO       
EOP file        : eop.240523.p240816                                           
EOP coverage    : DATA-BASED 1962-JAN-20 TO 2024-MAY-23. PREDICTS-> 2024-AUG-15
Units conversion: 1 au= 149597870.700 km, c= 299792.458 km/s, 1 day= 86400.0 s 
Table cut-offs 1: Elevation (-90.0deg=NO ),Airmass (>38.000=NO), Daylight (YES)
Table cut-offs 2: Solar elongation (  0.0,180.0=NO ),Local Hour Angle( 0.0=NO )
Table cut-offs 3: RA/DEC angular rate (     0.0=NO )                           
*******************************************************************************
Initial IAU76/J2000 heliocentric ecliptic osculating elements (au, days, deg.):
  EPOCH=  2458376.5 ! 2018-Sep-15.00 (TDB)         Residual RMS= .12525        
   EC= .3382936082205208   QR= .9576766169446216   TP= 2458412.3293739939      
   OM= 161.903422202901    W=  234.5704247756858   IN= 9.466091569921099       
  Equivalent ICRF heliocentric cartesian coordinates (au, au/d):
   X= 1.017940821946709E+00  Y=-7.278189102440286E-02  Z=-7.249995171787897E-02
  VX=-1.754817228708964E-03 VY= 1.862872143473751E-02 VZ= 4.887370356508847E-03
Asteroid physical parameters (km, seconds, rotational period in hours):        
   GM= n.a.                RAD= n.a.               ROTPER= n.a.                
   H= 24.3                 G= .150                 B-V= n.a.                   
                           ALBEDO= n.a.            STYP= n.a.                  
*******************************************************************************
 Date__(UT)__HR:MN     R.A._________(ICRF)_________DEC
******************************************************
$$SOE
 2018-Sep-10 08:55     03 08 18.882150 -06 53 51.41011
 2018-Sep-10 08:56     03 08 19.654950 -06 53 55.96736
 2018-Sep-10 08:57     03 08 20.427768 -06 54 00.52425
 2018-Sep-10 08:58     03 08 21.200607 -06 54 05.08080
 2018-Sep-10 08:59     03 08 21.973466 -06 54 09.63700
 2018-Sep-10 09:00     03 08 22.746346 -06 54 14.19285
 2018-Sep-10 09:01     03 08 23.519249 -06 54 18.74835
 2018-Sep-10 09:02     03 08 24.292174 -06 54 23.30350
 2018-Sep-10 09:03     03 08 25.065122 -06 54 27.85831
 2018-Sep-10 09:04     03 08 25.838095 -06 54 32.41276
 2018-Sep-10 09:05     03 08 26.611092 -06 54 36.96687
 2018-Sep-10 09:06     03 08 27.384115 -06 54 41.52062
 2018-Sep-10 09:07     03 08 28.157164 -06 54 46.07403
 2018-Sep-10 09:08     03 08 28.930239 -06 54 50.62708
 2018-Sep-10 09:09     03 08 29.703342 -06 54 55.17979
 2018-Sep-10 09:10     03 08 30.476473 -06 54 59.73215
 2018-Sep-10 09:11     03 08 31.249633 -06 55 04.28416
 2018-Sep-10 09:12     03 08 32.022823 -06 55 08.83582
 2018-Sep-10 09:13     03 08 32.796042 -06 55 13.38713
 2018-Sep-10 09:14     03 08 33.569292 -06 55 17.93809
 2018-Sep-10 09:15     03 08 34.342574 -06 55 22.48870
 2018-Sep-10 09:16     03 08 35.115888 -06 55 27.03896
 2018-Sep-10 09:17     03 08 35.889234 -06 55 31.58887
 2018-Sep-10 09:18     03 08 36.662615 -06 55 36.13843
 2018-Sep-10 09:19     03 08 37.436029 -06 55 40.68764
 2018-Sep-10 09:20     03 08 38.209478 -06 55 45.23650
 2018-Sep-10 09:21     03 08 38.982963 -06 55 49.78502
 2018-Sep-10 09:22     03 08 39.756484 -06 55 54.33318
 2018-Sep-10 09:23     03 08 40.530041 -06 55 58.88099
 2018-Sep-10 09:24     03 08 41.303636 -06 56 03.42846
 2018-Sep-10 09:25     03 08 42.077270 -06 56 07.97557
 2018-Sep-10 09:26     03 08 42.850942 -06 56 12.52234
 2018-Sep-10 09:27     03 08 43.624654 -06 56 17.06875
 2018-Sep-10 09:28 A   03 08 44.398406 -06 56 21.61482
 2018-Sep-10 09:29 A   03 08 45.172198 -06 56 26.16054
 2018-Sep-10 09:30 A   03 08 45.946033 -06 56 30.70590
 2018-Sep-10 09:31 A   03 08 46.719909 -06 56 35.25092
 2018-Sep-10 09:32 A   03 08 47.493828 -06 56 39.79559
 2018-Sep-10 09:33 A   03 08 48.267791 -06 56 44.33991
 2018-Sep-10 09:34 A   03 08 49.041798 -06 56 48.88388
 2018-Sep-10 09:35 A   03 08 49.815850 -06 56 53.42751
 2018-Sep-10 09:36 A   03 08 50.589947 -06 56 57.97078
 2018-Sep-10 09:37 A   03 08 51.364091 -06 57 02.51371
 2018-Sep-10 09:38 A   03 08 52.138281 -06 57 07.05628
 2018-Sep-10 09:39 A   03 08 52.912518 -06 57 11.59851
 2018-Sep-10 09:40 A   03 08 53.686804 -06 57 16.14039
 2018-Sep-10 09:41 A   03 08 54.461139 -06 57 20.68192
 2018-Sep-10 09:42 A   03 08 55.235523 -06 57 25.22311
 2018-Sep-10 09:43 A   03 08 56.009957 -06 57 29.76394
 2018-Sep-10 09:44 A   03 08 56.784442 -06 57 34.30443
 2018-Sep-10 09:45 A   03 08 57.558978 -06 57 38.84457
 2018-Sep-10 09:46 A   03 08 58.333566 -06 57 43.38437
 2018-Sep-10 09:47 A   03 08 59.108207 -06 57 47.92381
 2018-Sep-10 09:48 A   03 08 59.882901 -06 57 52.46291
 2018-Sep-10 09:49 A   03 09 00.657649 -06 57 57.00166
 2018-Sep-10 09:50 A   03 09 01.432452 -06 58 01.54007
 2018-Sep-10 09:51 A   03 09 02.207311 -06 58 06.07812
 2018-Sep-10 09:52 A   03 09 02.982225 -06 58 10.61584
 2018-Sep-10 09:53 A   03 09 03.757195 -06 58 15.15320
 2018-Sep-10 09:54 A   03 09 04.532223 -06 58 19.69022
 2018-Sep-10 09:55 A   03 09 05.307309 -06 58 24.22690
 2018-Sep-10 09:56 N   03 09 06.082454 -06 58 28.76322
 2018-Sep-10 09:57 N   03 09 06.857657 -06 58 33.29921
 2018-Sep-10 09:58 N   03 09 07.632920 -06 58 37.83484
 2018-Sep-10 09:59 N   03 09 08.408244 -06 58 42.37013
 2018-Sep-10 10:00 N   03 09 09.183629 -06 58 46.90508
 2018-Sep-10 10:01 N   03 09 09.959075 -06 58 51.43968
 2018-Sep-10 10:02 N   03 09 10.734584 -06 58 55.97394
 2018-Sep-10 10:03 N   03 09 11.510156 -06 59 00.50786
 2018-Sep-10 10:04 N   03 09 12.285792 -06 59 05.04143
 2018-Sep-10 10:05 N   03 09 13.061491 -06 59 09.57465
 2018-Sep-10 10:06 N   03 09 13.837256 -06 59 14.10754
 2018-Sep-10 10:07 N   03 09 14.613086 -06 59 18.64008
 2018-Sep-10 10:08 N   03 09 15.388982 -06 59 23.17228
 2018-Sep-10 10:09 N   03 09 16.164945 -06 59 27.70413
 2018-Sep-10 10:10 N   03 09 16.940976 -06 59 32.23564
 2018-Sep-10 10:11 N   03 09 17.717074 -06 59 36.76681
 2018-Sep-10 10:12 N   03 09 18.493241 -06 59 41.29764
 2018-Sep-10 10:13 N   03 09 19.269478 -06 59 45.82813
 2018-Sep-10 10:14 N   03 09 20.045784 -06 59 50.35828
 2018-Sep-10 10:15 N   03 09 20.822161 -06 59 54.88808
 2018-Sep-10 10:16 N   03 09 21.598609 -06 59 59.41755
 2018-Sep-10 10:17 N   03 09 22.375129 -07 00 03.94667
 2018-Sep-10 10:18 N   03 09 23.151721 -07 00 08.47546
 2018-Sep-10 10:19 N   03 09 23.928386 -07 00 13.00391
 2018-Sep-10 10:20 N   03 09 24.705125 -07 00 17.53201
 2018-Sep-10 10:21 N   03 09 25.481938 -07 00 22.05978
 2018-Sep-10 10:22 N   03 09 26.258825 -07 00 26.58721
 2018-Sep-10 10:23 N   03 09 27.035789 -07 00 31.11430
 2018-Sep-10 10:24 C   03 09 27.812828 -07 00 35.64105
 2018-Sep-10 10:25 C   03 09 28.589944 -07 00 40.16747
 2018-Sep-10 10:26 C   03 09 29.367137 -07 00 44.69355
 2018-Sep-10 10:27 C   03 09 30.144408 -07 00 49.21929
 2018-Sep-10 10:28 C   03 09 30.921758 -07 00 53.74470
 2018-Sep-10 10:29 C   03 09 31.699187 -07 00 58.26977
 2018-Sep-10 10:30 C   03 09 32.476695 -07 01 02.79450
 2018-Sep-10 10:31 C   03 09 33.254284 -07 01 07.31890
 2018-Sep-10 10:32 C   03 09 34.031953 -07 01 11.84296
 2018-Sep-10 10:33 C   03 09 34.809704 -07 01 16.36669
 2018-Sep-10 10:34 C   03 09 35.587538 -07 01 20.89009
 2018-Sep-10 10:35 C   03 09 36.365454 -07 01 25.41315
 2018-Sep-10 10:36 C   03 09 37.143453 -07 01 29.93588
 2018-Sep-10 10:37 C   03 09 37.921536 -07 01 34.45827
 2018-Sep-10 10:38 C   03 09 38.699703 -07 01 38.98034
 2018-Sep-10 10:39 C   03 09 39.477956 -07 01 43.50207
